[{"OBJECT_NAME":"STARLINK-30191","OBJECT_ID":"2023-102K","EPOCH":"2026-03-24T18:25:03.766944","MEAN_MOTION":15.27567657,"ECCENTRICITY":6.218e-5,"INCLINATION":43.004,"RA_OF_ASC_NODE":101.4949,"ARG_OF_PERICENTER":271.7905,"MEAN_ANOMALY":88.2876,"EPHEMERIS_TYPE":0,"CLASSIFICATION_TYPE":"U","NORAD_CAT_ID":57413,"ELEMENT_SET_NO":999,"REV_AT_EPOCH":14927,"BSTAR":-0.00012532907,"MEAN_MOTION_DOT":-3.708e-5,"MEAN_MOTION_DDOT":0},{"OBJECT_NAME":"STARLINK-30193","OBJECT_ID":"2023-102L","EPOCH":"2026-03-24T22:00:00.999936","MEAN_MOTION":15.18288408,"ECCENTRICITY":0.00019366,"INCLINATION":42.9996,"RA_OF_ASC_NODE":163.9233,"ARG_OF_PERICENTER":286.3369,"MEAN_ANOMALY":45.4916,"EPHEMERIS_TYPE":0,"CLASSIFICATION_TYPE":"U","NORAD_CAT_ID":57414,"ELEMENT_SET_NO":999,"REV_AT_EPOCH":568,"BSTAR":0.00027593476,"MEAN_MOTION_DOT":5.53e-5,"MEAN_MOTION_DDOT":0},{"OBJECT_NAME":"STARLINK-30208","OBJECT_ID":"2023-102M","EPOCH":"2026-03-24T12:39:31.027680","MEAN_MOTION":15.26731603,"ECCENTRICITY":0.00016317,"INCLINATION":43.002,"RA_OF_ASC_NODE":164.3966,"ARG_OF_PERICENTER":273.8803,"MEAN_ANOMALY":86.1862,"EPHEMERIS_TYPE":0,"CLASSIFICATION_TYPE":"U","NORAD_CAT_ID":57415,"ELEMENT_SET_NO":999,"REV_AT_EPOCH":14846,"BSTAR":0.00016394052,"MEAN_MOTION_DOT":4.139e-5,"MEAN_MOTION_DDOT":0},{"OBJECT_NAME":"STARLINK-30224","OBJECT_ID":"2023-102N","EPOCH":"2026-03-24T22:00:00.999936","MEAN_MOTION":15.26777689,"ECCENTRICITY":0.00017774,"INCLINATION":43.0008,"RA_OF_ASC_NODE":162.5195,"ARG_OF_PERICENTER":266.203,"MEAN_ANOMALY":302.5314,"EPHEMERIS_TYPE":0,"CLASSIFICATION_TYPE":"U","NORAD_CAT_ID":57416,"ELEMENT_SET_NO":999,"REV_AT_EPOCH":568,"BSTAR":-0.0011746846,"MEAN_MOTION_DOT":-0.00031671,"MEAN_MOTION_DDOT":0},{"OBJECT_NAME":"STARLINK-30043","OBJECT_ID":"2023-102P","EPOCH":"2026-03-24T22:22:17.848992","MEAN_MOTION":15.2673325,"ECCENTRICITY":0.00013224,"INCLINATION":43.0025,"RA_OF_ASC_NODE":162.2704,"ARG_OF_PERICENTER":273.8631,"MEAN_ANOMALY":86.2069,"EPHEMERIS_TYPE":0,"CLASSIFICATION_TYPE":"U","NORAD_CAT_ID":57417,"ELEMENT_SET_NO":999,"REV_AT_EPOCH":14857,"BSTAR":6.2947167e-5,"MEAN_MOTION_DOT":1.429e-5,"MEAN_MOTION_DDOT":0},{"OBJECT_NAME":"STARLINK-30221","OBJECT_ID":"2023-102Q","EPOCH":"2026-03-24T22:00:00.999936","MEAN_MOTION":15.14720791,"ECCENTRICITY":0.00014058,"INCLINATION":42.9999,"RA_OF_ASC_NODE":164.6829,"ARG_OF_PERICENTER":286.6343,"MEAN_ANOMALY":85.5705,"EPHEMERIS_TYPE":0,"CLASSIFICATION_TYPE":"U","NORAD_CAT_ID":57418,"ELEMENT_SET_NO":999,"REV_AT_EPOCH":578,"BSTAR":-0.0010858021,"MEAN_MOTION_DOT":-0.0002065,"MEAN_MOTION_DDOT":0},{"OBJECT_NAME":"STARLINK-30189","OBJECT_ID":"2023-105A","EPOCH":"2026-03-24T22:00:00.999936","MEAN_MOTION":15.65492602,"ECCENTRICITY":0.00015859,"INCLINATION":42.9997,"RA_OF_ASC_NODE":147.7881,"ARG_OF_PERICENTER":274.4861,"MEAN_ANOMALY":124.7868,"EPHEMERIS_TYPE":0,"CLASSIFICATION_TYPE":"U","NORAD_CAT_ID":57430,"ELEMENT_SET_NO":999,"REV_AT_EPOCH":585,"BSTAR":0.00054979609,"MEAN_MOTION_DOT":0.00056621,"MEAN_MOTION_DDOT":0},{"OBJECT_NAME":"STARLINK-30188","OBJECT_ID":"2023-105C","EPOCH":"2026-03-24T22:00:00.999936","MEAN_MOTION":15.19488579,"ECCENTRICITY":0.0001729,"INCLINATION":42.9985,"RA_OF_ASC_NODE":176.7414,"ARG_OF_PERICENTER":285.593,"MEAN_ANOMALY":186.1861,"EPHEMERIS_TYPE":0,"CLASSIFICATION_TYPE":"U","NORAD_CAT_ID":57432,"ELEMENT_SET_NO":999,"REV_AT_EPOCH":579,"BSTAR":0.00075066598,"MEAN_MOTION_DOT":0.00016029,"MEAN_MOTION_DDOT":0},{"OBJECT_NAME":"STARLINK-30105","OBJECT_ID":"2023-105D","EPOCH":"2026-03-24T21:54:10.243584","MEAN_MOTION":15.27574745,"ECCENTRICITY":0.00010476,"INCLINATION":43.0028,"RA_OF_ASC_NODE":304.8625,"ARG_OF_PERICENTER":274.2671,"MEAN_ANOMALY":85.8061,"EPHEMERIS_TYPE":0,"CLASSIFICATION_TYPE":"U","NORAD_CAT_ID":57433,"ELEMENT_SET_NO":999,"REV_AT_EPOCH":15065,"BSTAR":7.1832363e-5,"MEAN_MOTION_DOT":1.715e-5,"MEAN_MOTION_DDOT":0},{"OBJECT_NAME":"STARLINK-30102","OBJECT_ID":"2023-105E","EPOCH":"2026-03-24T17:52:17.864544","MEAN_MOTION":15.28560312,"ECCENTRICITY":0.00017422,"INCLINATION":43.0012,"RA_OF_ASC_NODE":174.8803,"ARG_OF_PERICENTER":280.446,"MEAN_ANOMALY":79.6196,"EPHEMERIS_TYPE":0,"CLASSIFICATION_TYPE":"U","NORAD_CAT_ID":57434,"ELEMENT_SET_NO":999,"REV_AT_EPOCH":14783,"BSTAR":0.014921701,"MEAN_MOTION_DOT":0.00449558,"MEAN_MOTION_DDOT":0},{"OBJECT_NAME":"STARLINK-30237","OBJECT_ID":"2023-105H","EPOCH":"2026-03-24T22:00:00.999936","MEAN_MOTION":15.70761028,"ECCENTRICITY":0.00188273,"INCLINATION":42.993,"RA_OF_ASC_NODE":143.0892,"ARG_OF_PERICENTER":71.9517,"MEAN_ANOMALY":103.0035,"EPHEMERIS_TYPE":0,"CLASSIFICATION_TYPE":"U","NORAD_CAT_ID":57437,"ELEMENT_SET_NO":999,"REV_AT_EPOCH":586,"BSTAR":0.00013893754,"MEAN_MOTION_DOT":0.00017523,"MEAN_MOTION_DDOT":0},{"OBJECT_NAME":"STARLINK-30158","OBJECT_ID":"2023-105J","EPOCH":"2026-03-24T22:37:58.851264","MEAN_MOTION":15.27587657,"ECCENTRICITY":0.00012883,"INCLINATION":43.0013,"RA_OF_ASC_NODE":173.7888,"ARG_OF_PERICENTER":259.5811,"MEAN_ANOMALY":100.4895,"EPHEMERIS_TYPE":0,"CLASSIFICATION_TYPE":"U","NORAD_CAT_ID":57438,"ELEMENT_SET_NO":999,"REV_AT_EPOCH":14791,"BSTAR":8.2489513e-5,"MEAN_MOTION_DOT":2.009e-5,"MEAN_MOTION_DDOT":0},{"OBJECT_NAME":"STARLINK-30160","OBJECT_ID":"2023-105M","EPOCH":"2026-03-24T22:00:00.999936","MEAN_MOTION":15.12124713,"ECCENTRICITY":0.00015951,"INCLINATION":42.9999,"RA_OF_ASC_NODE":178.0708,"ARG_OF_PERICENTER":269.5717,"MEAN_ANOMALY":356.4534,"EPHEMERIS_TYPE":0,"CLASSIFICATION_TYPE":"U","NORAD_CAT_ID":57441,"ELEMENT_SET_NO":999,"REV_AT_EPOCH":577,"BSTAR":0.00030787263,"MEAN_MOTION_DOT":5.179e-5,"MEAN_MOTION_DDOT":0},{"OBJECT_NAME":"STARLINK-30146","OBJECT_ID":"2023-105N","EPOCH":"2026-03-24T22:43:32.532384","MEAN_MOTION":15.27589758,"ECCENTRICITY":0.000182,"INCLINATION":42.9999,"RA_OF_ASC_NODE":173.8146,"ARG_OF_PERICENTER":275.1682,"MEAN_ANOMALY":84.8962,"EPHEMERIS_TYPE":0,"CLASSIFICATION_TYPE":"U","NORAD_CAT_ID":57442,"ELEMENT_SET_NO":999,"REV_AT_EPOCH":14797,"BSTAR":0.00065051189,"MEAN_MOTION_DOT":0.00017687,"MEAN_MOTION_DDOT":0},{"OBJECT_NAME":"STARLINK-30197","OBJECT_ID":"2023-105P","EPOCH":"2026-03-24T22:00:00.999936","MEAN_MOTION":15.27601935,"ECCENTRICITY":0.00014615,"INCLINATION":43.0001,"RA_OF_ASC_NODE":173.7201,"ARG_OF_PERICENTER":261.101,"MEAN_ANOMALY":45.7327,"EPHEMERIS_TYPE":0,"CLASSIFICATION_TYPE":"U","NORAD_CAT_ID":57443,"ELEMENT_SET_NO":999,"REV_AT_EPOCH":575,"BSTAR":-0.0010407391,"MEAN_MOTION_DOT":-0.00028809,"MEAN_MOTION_DDOT":0},{"OBJECT_NAME":"STARLINK-30181","OBJECT_ID":"2023-105Q","EPOCH":"2026-03-24T22:00:00.999936","MEAN_MOTION":15.21352954,"ECCENTRICITY":0.00020651,"INCLINATION":42.9993,"RA_OF_ASC_NODE":176.8695,"ARG_OF_PERICENTER":298.842,"MEAN_ANOMALY":115.3458,"EPHEMERIS_TYPE":0,"CLASSIFICATION_TYPE":"U","NORAD_CAT_ID":57444,"ELEMENT_SET_NO":999,"REV_AT_EPOCH":577,"BSTAR":0.00085709524,"MEAN_MOTION_DOT":0.0001938,"MEAN_MOTION_DDOT":0}]
