STARLINK-30191          
1 57413U 23102K   26083.76740471 -.00003708  00000+0 -12533-3 0  9999
2 57413  43.0040 101.4949 0000621 271.7905  88.2876 15.27567657149274
STARLINK-30193          
1 57414U 23102L   26083.91667824  .00005530  00000+0  27593-3 0  9992
2 57414  42.9996 163.9233 0001936 286.3369  45.4916 15.18288408  5688
STARLINK-30208          
1 57415U 23102M   26083.52744245  .00004139  00000+0  16394-3 0  9994
2 57415  43.0020 164.3966 0001631 273.8803  86.1862 15.26731603148468
STARLINK-30224          
1 57416U 23102N   26083.91667824 -.00031671  00000+0 -11747-2 0  9994
2 57416  43.0008 162.5195 0001777 266.2030 302.5314 15.26777689  5685
STARLINK-30043          
1 57417U 23102P   26083.93215103  .00001429  00000+0  62947-4 0  9992
2 57417  43.0025 162.2704 0001322 273.8631  86.2069 15.26733250148570
STARLINK-30221          
1 57418U 23102Q   26083.91667824 -.00020650  00000+0 -10858-2 0  9993
2 57418  42.9999 164.6829 0001405 286.6343  85.5705 15.14720791  5784
STARLINK-30189          
1 57430U 23105A   26083.91667824  .00056621  00000+0  54980-3 0  9990
2 57430  42.9997 147.7881 0001585 274.4861 124.7868 15.65492602  5852
STARLINK-30188          
1 57432U 23105C   26083.91667824  .00016029  00000+0  75067-3 0  9999
2 57432  42.9985 176.7414 0001729 285.5930 186.1861 15.19488579  5790
STARLINK-30105          
1 57433U 23105D   26083.91261856  .00001715  00000+0  71832-4 0  9998
2 57433  43.0028 304.8625 0001047 274.2671  85.8061 15.27574745150652
STARLINK-30102          
1 57434U 23105E   26083.74465121  .00449558  00000+0  14922-1 0  9996
2 57434  43.0012 174.8803 0001742 280.4460  79.6196 15.28560312147838
STARLINK-30237          
1 57437U 23105H   26083.91667824  .00017523  00000+0  13894-3 0  9994
2 57437  42.9930 143.0892 0018827  71.9517 103.0035 15.70761028  5866
STARLINK-30158          
1 57438U 23105J   26083.94304226  .00002009  00000+0  82490-4 0  9994
2 57438  43.0013 173.7888 0001288 259.5811 100.4895 15.27587657147914
STARLINK-30160          
1 57441U 23105M   26083.91667824  .00005179  00000+0  30787-3 0  9993
2 57441  42.9999 178.0708 0001595 269.5717 356.4534 15.12124713  5779
STARLINK-30146          
1 57442U 23105N   26083.94690431  .00017687  00000+0  65051-3 0  9996
2 57442  42.9999 173.8146 0001820 275.1682  84.8962 15.27589758147970
STARLINK-30197          
1 57443U 23105P   26083.91667824 -.00028809  00000+0 -10407-2 0  9998
2 57443  43.0001 173.7201 0001461 261.1010  45.7327 15.27601935  5751
STARLINK-30181          
1 57444U 23105Q   26083.91667824  .00019380  00000+0  85710-3 0  9991
2 57444  42.9993 176.8695 0002065 298.8420 115.3458 15.21352954  5773
